NORAD_CAT_ID,OBJECT_NAME,OBJECT_TYPE,EPOCH,MEAN_MOTION,ECCENTRICITY,INCLINATION,RA_OF_ASC_NODE,ARG_OF_PERICENTER,MEAN_ANOMALY,BSTAR,MEAN_MOTION_DOT,MEAN_MOTION_DDOT,TLE_LINE0,TLE_LINE1,TLE_LINE2,SEMIMAJOR_AXIS,PERIOD,APOGEE,PERIGEE,DECAYED
49449.0,STARLINK-3137,PAYLOAD,2024-02-12 03:43:59,15.08842677,0.0001772,53.2187,15.3386,120.8813,239.2353,7.5436e-05,9.13e-06,0.0,0 STARLINK-3137,1 49449U 21104AT  24043.15554558  .00000913  00000-0  75436-4 0  9991,2 49449  53.2187  15.3386 0001772 120.8813 239.2353 15.08842677125647,6917.872,95.437,540.963,538.511,0.0
49449.0,STARLINK-3137,PAYLOAD,2024-02-13 03:34:46,15.08837374,0.0001492,53.2181,10.8738,103.1993,256.9166,-8.0414e-05,-1.567e-05,0.0,0 STARLINK-3137,1 49449U 21104AT  24044.14915056 -.00001567  00000-0 -80414-4 0  9995,2 49449  53.2181  10.8738 0001492 103.1993 256.9166 15.08837374125796,6917.888,95.438,540.786,538.721,0.0
49449.0,STARLINK-3137,PAYLOAD,2024-02-13 06:45:32,15.08843563,0.0001466,53.2188,10.2808,109.291,250.824,3.7658e-05,3.11e-06,0.0,0 STARLINK-3137,1 49449U 21104AT  24044.28163067  .00000311  00000-0  37658-4 0  9993,2 49449  53.2188  10.2808 0001466 109.2910 250.8240 15.08843563124738,6917.869,95.437,540.749,538.72,0.0
49449.0,STARLINK-3137,PAYLOAD,2024-02-14 05:00:56,15.0885177,0.0001468,53.2189,6.119,92.0733,268.0428,0.00024232,3.572e-05,0.0,0 STARLINK-3137,1 49449U 21104AT  24045.20898345  .00003572  00000-0  24232-3 0  9995,2 49449  53.2189   6.1190 0001468  92.0733 268.0428 15.08851770125954,6917.844,95.437,540.725,538.694,0.0
49449.0,STARLINK-3137,PAYLOAD,2024-02-14 14:33:15,15.08843176,0.000172,53.2201,4.3381,78.7533,281.3652,0.00015407,2.165e-05,0.0,0 STARLINK-3137,1 49449U 21104AT  24045.60643115  .00002165  00000-0  15407-3 0  9993,2 49449  53.2201   4.3381 0001720  78.7533 281.3652 15.08843176124936,6917.871,95.437,540.926,538.546,0.0
49449.0,STARLINK-3137,PAYLOAD,2024-02-15 03:16:21,15.08838392,0.0001407,53.2185,1.9526,111.2277,248.8865,4.4566e-05,4.21e-06,0.0,0 STARLINK-3137,1 49449U 21104AT  24046.13635505  .00000421  00000-0  44566-4 0  9998,2 49449  53.2185   1.9526 0001407 111.2277 248.8865 15.08838392126098,6917.885,95.438,540.724,538.777,0.0
49449.0,STARLINK-3137,PAYLOAD,2024-02-15 20:45:35,15.08836743,0.0001462,53.2171,358.6836,102.817,257.2986,5.6784e-05,6.16e-06,0.0,0 STARLINK-3137,1 49449U 21104AT  24046.86499659  .00000616  00000-0  56784-4 0  9997,2 49449  53.2171 358.6836 0001462 102.8170 257.2986 15.08836743125127,6917.89,95.438,540.767,538.744,0.0
49449.0,STARLINK-3137,PAYLOAD,2024-02-16 03:07:07,15.08851035,0.0001494,53.2188,357.4952,96.8891,263.2271,1.446e-06,-2.65e-06,0.0,0 STARLINK-3137,1 49449U 21104AT  24047.12995008 -.00000265  00000-0  14460-5 0  9993,2 49449  53.2188 357.4952 0001494  96.8891 263.2271 15.08851035126247,6917.847,95.437,540.745,538.678,0.0
49449.0,STARLINK-3137,PAYLOAD,2024-02-16 06:17:53,15.08852071,0.0001507,53.219,356.9008,96.6131,263.5033,1.3027e-05,-8.1e-07,0.0,0 STARLINK-3137,1 49449U 21104AT  24047.26242852 -.00000081  00000-0  13027-4 0  9993,2 49449  53.2190 356.9008 0001507  96.6131 263.5033 15.08852071125188,6917.843,95.437,540.751,538.666,0.0
49449.0,STARLINK-3137,PAYLOAD,2024-02-16 20:36:23,15.08831825,0.0001456,53.2169,354.2239,90.4215,269.6944,5.3889e-05,5.7e-06,0.0,0 STARLINK-3137,1 49449U 21104AT  24047.85860093  .00000570  00000-0  53889-4 0  9993,2 49449  53.2169 354.2239 0001456  90.4215 269.6944 15.08831825125271,6917.905,95.438,540.778,538.763,0.0
49449.0,STARLINK-3137,PAYLOAD,2024-02-17 02:57:55,15.08838944,0.0001598,53.2181,353.0338,108.7067,251.4099,7.4816e-05,9.03e-06,0.0,0 STARLINK-3137,1 49449U 21104AT  24048.12355618  .00000903  00000-0  74816-4 0  9999,2 49449  53.2181 353.0338 0001598 108.7067 251.4099 15.08838944126390,6917.884,95.438,540.854,538.643,0.0
49449.0,STARLINK-3137,PAYLOAD,2024-02-17 06:08:41,15.08842136,0.0001551,53.2182,352.4376,105.083,255.0333,0.00011207,1.496e-05,0.0,0 STARLINK-3137,1 49449U 21104AT  24048.25603409  .00001496  00000-0  11207-3 0  9999,2 49449  53.2182 352.4376 0001551 105.0830 255.0333 15.08842136125335,6917.874,95.437,540.812,538.666,0.0
49449.0,STARLINK-3137,PAYLOAD,2024-02-18 05:59:28,15.08850626,0.0001321,53.2182,347.9779,94.1389,265.9754,0.00010027,1.309e-05,0.0,0 STARLINK-3137,1 49449U 21104AT  24049.24963066  .00001309  00000-0  10027-3 0  9999,2 49449  53.2182 347.9779 0001321  94.1389 265.9754 15.08850626126569,6917.848,95.437,540.627,538.799,0.0
49449.0,STARLINK-3137,PAYLOAD,2024-02-18 20:17:56,15.0884054,0.0001361,53.2174,345.3015,89.1974,270.9175,3.4355e-05,2.59e-06,0.0,0 STARLINK-3137,1 49449U 21104AT  24049.84579776  .00000259  00000-0  34355-4 0  9990,2 49449  53.2174 345.3015 0001361  89.1974 270.9175 15.08840540126650,6917.879,95.438,540.685,538.802,0.0
49449.0,STARLINK-3137,PAYLOAD,2024-02-19 12:11:47,15.08845844,0.0001255,53.2167,342.3317,76.3288,283.7844,1.8557e-05,8e-08,0.0,0 STARLINK-3137,1 49449U 21104AT  24050.50819166  .00000008  00000-0  18557-4 0  9993,2 49449  53.2167 342.3317 0001255  76.3288 283.7844 15.08845844125670,6917.863,95.437,540.596,538.859,0.0
49449.0,STARLINK-3137,PAYLOAD,2024-02-19 20:08:45,15.08820921,0.0001196,53.2176,340.8419,74.7808,285.3317,-0.00015667,-2.779e-05,0.0,0 STARLINK-3137,1 49449U 21104AT  24050.83941803 -.00002779  00000-0 -15667-3 0  9990,2 49449  53.2176 340.8419 0001196  74.7808 285.3317 15.08820921126808,6917.939,95.439,540.631,538.976,0.0
49449.0,STARLINK-3137,PAYLOAD,2024-02-20 04:05:40,15.08834525,0.0001558,53.2195,339.36,97.1858,262.9312,-6.9611e-05,-1.396e-05,0.0,0 STARLINK-3137,1 49449U 21104AT  24051.17060851 -.00001396  00000-0 -69611-4 0  9996,2 49449  53.2195 339.3600 0001558  97.1858 262.9312 15.08834525126856,6917.897,95.438,540.84,538.684,0.0
49449.0,STARLINK-3137,PAYLOAD,2024-02-20 12:02:36,15.08836585,0.0001293,53.2179,337.8707,86.4752,273.6388,3.92e-05,3.36e-06,0.0,0 STARLINK-3137,1 49449U 21104AT  24051.50180599  .00000336  00000-0  39200-4 0  9997,2 49449  53.2179 337.8707 0001293  86.4752 273.6388 15.08836585125825,6917.891,95.438,540.65,538.861,0.0
49449.0,STARLINK-3137,PAYLOAD,2024-02-20 23:10:17,15.08850312,0.0001267,53.2173,335.7888,83.6629,276.4507,0.00010253,1.345e-05,0.0,0 STARLINK-3137,1 49449U 21104AT  24051.96547575  .00001345  00000-0  10253-3 0  9995,2 49449  53.2173 335.7888 0001267  83.6629 276.4507 15.08850312125894,6917.849,95.437,540.59,538.837,0.0
49449.0,STARLINK-3137,PAYLOAD,2024-02-21 03:56:26,15.08853985,0.0001396,53.217,334.8975,84.4493,275.6659,0.0002695,4.005e-05,0.0,0 STARLINK-3137,1 49449U 21104AT  24052.16419384  .00004005  00000-0  26950-3 0  9991,2 49449  53.2170 334.8975 0001396  84.4493 275.6659 15.08853985127002,6917.838,95.437,540.668,538.737,0.0
49449.0,STARLINK-3137,PAYLOAD,2024-02-21 11:53:22,15.08838388,0.0001777,53.2178,333.4102,72.7726,287.346,6.067e-05,6.78e-06,0.0,0 STARLINK-3137,1 49449U 21104AT  24052.49540307  .00000678  00000-0  60670-4 0  9997,2 49449  53.2178 333.4102 0001777  72.7726 287.3460 15.08838388127054,6917.885,95.438,540.98,538.521,0.0
49449.0,STARLINK-3137,PAYLOAD,2024-02-21 23:01:05,15.08829093,0.0001788,53.2186,331.332,76.7137,283.4054,0.00010679,1.411e-05,0.0,0 STARLINK-3137,1 49449U 21104AT  24052.95909131  .00001411  00000-0  10679-3 0  9991,2 49449  53.2186 331.3320 0001788  76.7137 283.4054 15.08829093126041,6917.914,95.438,541.016,538.542,0.0
49449.0,STARLINK-3137,PAYLOAD,2024-02-22 11:44:10,15.0884282,0.0001692,53.2174,328.9501,75.31,284.808,0.00014845,2.075e-05,0.0,0 STARLINK-3137,1 49449U 21104AT  24053.48900481  .00002075  00000-0  14845-3 0  9995,2 49449  53.2174 328.9501 0001692  75.3100 284.8080 15.08842820126126,6917.872,95.437,540.907,538.566,0.0
49449.0,STARLINK-3137,PAYLOAD,2024-02-22 22:51:51,15.08849217,0.0001836,53.2181,326.869,76.8336,283.2861,0.0001343,1.85e-05,0.0,0 STARLINK-3137,1 49449U 21104AT  24053.95268158  .00001850  00000-0  13430-3 0  9994,2 49449  53.2181 326.8690 0001836  76.8336 283.2861 15.08849217126191,6917.852,95.437,540.987,538.447,0.0
49449.0,STARLINK-3137,PAYLOAD,2024-02-23 00:27:14,15.08849909,0.0001851,53.2176,326.5719,75.5125,284.6072,0.00019924,2.885e-05,0.0,0 STARLINK-3137,1 49449U 21104AT  24054.01892161  .00002885  00000-0  19924-3 0  9992,2 49449  53.2176 326.5719 0001851  75.5125 284.6072 15.08849909127281,6917.85,95.437,540.996,538.435,0.0
49449.0,STARLINK-3137,PAYLOAD,2024-02-23 11:34:56,15.08850993,0.00017,53.2169,324.4903,76.7476,283.3705,0.00025178,3.722e-05,0.0,0 STARLINK-3137,1 49449U 21104AT  24054.48259951  .00003722  00000-0  25178-3 0  9996,2 49449  53.2169 324.4903 0001700  76.7476 283.3705 15.08850993126272,6917.847,95.437,540.888,538.536,0.0
49449.0,STARLINK-3137,PAYLOAD,2024-02-23 21:07:15,15.08843956,0.000198,53.218,322.7033,100.0689,260.0527,0.00018446,2.649e-05,0.0,0 STARLINK-3137,1 49449U 21104AT  24054.88004290  .00002649  00000-0  18446-3 0  9991,2 49449  53.2180 322.7033 0001980 100.0689 260.0527 15.08843956127419,6917.868,95.437,541.103,538.364,0.0
49449.0,STARLINK-3137,PAYLOAD,2024-02-23 22:42:38,15.08840306,0.0001884,53.2178,322.4072,95.1888,264.9319,0.00010599,1.399e-05,0.0,0 STARLINK-3137,1 49449U 21104AT  24054.94628353  .00001399  00000-0  10599-3 0  9992,2 49449  53.2178 322.4072 0001884  95.1888 264.9319 15.08840306126343,6917.879,95.438,541.048,538.441,0.0
49449.0,STARLINK-3137,PAYLOAD,2024-02-24 00:18:02,15.08841224,0.0001925,53.218,322.1093,94.9466,265.1746,0.00016282,2.304e-05,0.0,0 STARLINK-3137,1 49449U 21104AT  24055.01252426  .00002304  00000-0  16282-3 0  9997,2 49449  53.2180 322.1093 0001925  94.9466 265.1746 15.08841224126359,6917.877,95.437,541.073,538.41,0.0
49449.0,STARLINK-3137,PAYLOAD,2024-02-24 17:47:16,15.08842671,0.0001949,53.2185,318.8381,99.0131,261.1082,-3.6651e-05,-8.72e-06,0.0,0 STARLINK-3137,1 49449U 21104AT  24055.74116416 -.00000872  00000-0 -36651-4 0  9998,2 49449  53.2185 318.8381 0001949  99.0131 261.1082 15.08842671127545,6917.872,95.437,541.086,538.389,0.0
